{
  "type": "FeatureCollection",
  "features": [
    {
      "type": "Feature",
      "properties": {
        "norad_id": 67075,
        "name": "STARLINK-36230",
        "group": "last-30-days",
        "lat": -30.69183483826621,
        "lon": -162.42183056396138,
        "alt_km": 348.8609273883858,
        "timestamp": "2025-12-26T18:39:31.000514+00:00",
        "meta_object_name": "STARLINK-36230",
        "meta_object_id": "2025-298A",
        "meta_epoch": "2025-12-26T14:00:04.000032",
        "meta_mean_motion": 15.75741476,
        "meta_eccentricity": 0.00037833,
        "meta_inclination": 69.9983,
        "meta_ra_of_asc_node": 210.6149,
        "meta_arg_of_pericenter": 266.7009,
        "meta_mean_anomaly": 40.2078,
        "meta_ephemeris_type": 0,
        "meta_classification_type": "U",
        "meta_norad_cat_id": 67075,
        "meta_element_set_no": 999,
        "meta_rev_at_epoch": 320,
        "meta_bstar": -0.01260681,
        "meta_mean_motion_dot": -0.01716754,
        "meta_mean_motion_ddot": 0,
        "tle_line1": "1 67075U 25298A   25360.58337963 -.01716754  00000+0 -12607-1 0  9990",
        "tle_line2": "2 67075  69.9983 210.6149 0003783 266.7009  40.2078 15.75741476  3208"
      },
      "geometry": {
        "type": "Point",
        "coordinates": [
          -162.42183056396138,
          -30.69183483826621
        ]
      }
    },
    {
      "type": "Feature",
      "properties": {
        "norad_id": 67076,
        "name": "STARLINK-36240",
        "group": "last-30-days",
        "lat": -28.920098958351346,
        "lon": -161.5477313062677,
        "alt_km": 348.8712031534187,
        "timestamp": "2025-12-26T18:39:31.000526+00:00",
        "meta_object_name": "STARLINK-36240",
        "meta_object_id": "2025-298B",
        "meta_epoch": "2025-12-26T14:00:04.000032",
        "meta_mean_motion": 15.75737901,
        "meta_eccentricity": 0.00036067,
        "meta_inclination": 69.9984,
        "meta_ra_of_asc_node": 210.6123,
        "meta_arg_of_pericenter": 266.9762,
        "meta_mean_anomaly": 41.8657,
        "meta_ephemeris_type": 0,
        "meta_classification_type": "U",
        "meta_norad_cat_id": 67076,
        "meta_element_set_no": 999,
        "meta_rev_at_epoch": 320,
        "meta_bstar": -0.012578629,
        "meta_mean_motion_dot": -0.01712949,
        "meta_mean_motion_ddot": 0,
        "tle_line1": "1 67076U 25298B   25360.58337963 -.01712949  00000+0 -12579-1 0  9991",
        "tle_line2": "2 67076  69.9984 210.6123 0003606 266.9762  41.8657 15.75737901  3202"
      },
      "geometry": {
        "type": "Point",
        "coordinates": [
          -161.5477313062677,
          -28.920098958351346
        ]
      }
    },
    {
      "type": "Feature",
      "properties": {
        "norad_id": 67077,
        "name": "STARLINK-36243",
        "group": "last-30-days",
        "lat": -26.9224405599818,
        "lon": -160.60073134559192,
        "alt_km": 348.7954788242423,
        "timestamp": "2025-12-26T18:39:31.000539+00:00",
        "meta_object_name": "STARLINK-36243",
        "meta_object_id": "2025-298C",
        "meta_epoch": "2025-12-26T14:00:04.000032",
        "meta_mean_motion": 15.75729474,
        "meta_eccentricity": 0.00037756,
        "meta_inclination": 69.9977,
        "meta_ra_of_asc_node": 210.6096,
        "meta_arg_of_pericenter": 266.938,
        "meta_mean_anomaly": 44.0766,
        "meta_ephemeris_type": 0,
        "meta_classification_type": "U",
        "meta_norad_cat_id": 67077,
        "meta_element_set_no": 999,
        "meta_rev_at_epoch": 320,
        "meta_bstar": -0.012611209,
        "meta_mean_motion_dot": -0.01716473,
        "meta_mean_motion_ddot": 0,
        "tle_line1": "1 67077U 25298C   25360.58337963 -.01716473  00000+0 -12611-1 0  9995",
        "tle_line2": "2 67077  69.9977 210.6096 0003775 266.9380  44.0766 15.75729474  3209"
      },
      "geometry": {
        "type": "Point",
        "coordinates": [
          -160.60073134559192,
          -26.9224405599818
        ]
      }
    },
    {
      "type": "Feature",
      "properties": {
        "norad_id": 67078,
        "name": "STARLINK-36236",
        "group": "last-30-days",
        "lat": -25.23374385115689,
        "lon": -159.82745500768792,
        "alt_km": 348.6663807384848,
        "timestamp": "2025-12-26T18:39:31.000549+00:00",
        "meta_object_name": "STARLINK-36236",
        "meta_object_id": "2025-298D",
        "meta_epoch": "2025-12-26T14:00:04.000032",
        "meta_mean_motion": 15.75732873,
        "meta_eccentricity": 0.00038051,
        "meta_inclination": 69.9983,
        "meta_ra_of_asc_node": 210.6075,
        "meta_arg_of_pericenter": 268.3655,
        "meta_mean_anomaly": 44.4743,
        "meta_ephemeris_type": 0,
        "meta_classification_type": "U",
        "meta_norad_cat_id": 67078,
        "meta_element_set_no": 999,
        "meta_rev_at_epoch": 320,
        "meta_bstar": -0.012596745,
        "meta_mean_motion_dot": -0.01714988,
        "meta_mean_motion_ddot": 0,
        "tle_line1": "1 67078U 25298D   25360.58337963 -.01714988  00000+0 -12597-1 0  9998",
        "tle_line2": "2 67078  69.9983 210.6075 0003805 268.3655  44.4743 15.75732873  3205"
      },
      "geometry": {
        "type": "Point",
        "coordinates": [
          -159.82745500768792,
          -25.23374385115689
        ]
      }
    },
    {
      "type": "Feature",
      "properties": {
        "norad_id": 67079,
        "name": "STARLINK-36159",
        "group": "last-30-days",
        "lat": -23.215984098404956,
        "lon": -158.93330612137427,
        "alt_km": 348.66688391729167,
        "timestamp": "2025-12-26T18:39:31.000559+00:00",
        "meta_object_name": "STARLINK-36159",
        "meta_object_id": "2025-298E",
        "meta_epoch": "2025-12-26T14:00:04.000032",
        "meta_mean_motion": 15.75723407,
        "meta_eccentricity": 0.00038212,
        "meta_inclination": 69.9982,
        "meta_ra_of_asc_node": 210.6056,
        "meta_arg_of_pericenter": 267.4094,
        "meta_mean_anomaly": 47.6151,
        "meta_ephemeris_type": 0,
        "meta_classification_type": "U",
        "meta_norad_cat_id": 67079,
        "meta_element_set_no": 999,
        "meta_rev_at_epoch": 320,
        "meta_bstar": -0.012630789,
        "meta_mean_motion_dot": -0.01718466,
        "meta_mean_motion_ddot": 0,
        "tle_line1": "1 67079U 25298E   25360.58337963 -.01718466  00000+0 -12631-1 0  9993",
        "tle_line2": "2 67079  69.9982 210.6056 0003821 267.4094  47.6151 15.75723407  3200"
      },
      "geometry": {
        "type": "Point",
        "coordinates": [
          -158.93330612137427,
          -23.215984098404956
        ]
      }
    },
    {
      "type": "Feature",
      "properties": {
        "norad_id": 67080,
        "name": "STARLINK-36158",
        "group": "last-30-days",
        "lat": -21.27662090593309,
        "lon": -158.1024481529047,
        "alt_km": 348.6364009054141,
        "timestamp": "2025-12-26T18:39:31.000571+00:00",
        "meta_object_name": "STARLINK-36158",
        "meta_object_id": "2025-298F",
        "meta_epoch": "2025-12-26T14:00:04.000032",
        "meta_mean_motion": 15.75710567,
        "meta_eccentricity": 0.00037937,
        "meta_inclination": 69.9981,
        "meta_ra_of_asc_node": 210.6024,
        "meta_arg_of_pericenter": 267.259,
        "meta_mean_anomaly": 49.8619,
        "meta_ephemeris_type": 0,
        "meta_classification_type": "U",
        "meta_norad_cat_id": 67080,
        "meta_element_set_no": 999,
        "meta_rev_at_epoch": 314,
        "meta_bstar": -0.012586175,
        "meta_mean_motion_dot": -0.01712214,
        "meta_mean_motion_ddot": 0,
        "tle_line1": "1 67080U 25298F   25360.58337963 -.01712214  00000+0 -12586-1 0  9999",
        "tle_line2": "2 67080  69.9981 210.6024 0003793 267.2590  49.8619 15.75710567  3142"
      },
      "geometry": {
        "type": "Point",
        "coordinates": [
          -158.1024481529047,
          -21.27662090593309
        ]
      }
    },
    {
      "type": "Feature",
      "properties": {
        "norad_id": 67081,
        "name": "STARLINK-35864",
        "group": "last-30-days",
        "lat": -19.459914833878106,
        "lon": -157.34434013281995,
        "alt_km": 348.5241467728911,
        "timestamp": "2025-12-26T18:39:31.000581+00:00",
        "meta_object_name": "STARLINK-35864",
        "meta_object_id": "2025-298G",
        "meta_epoch": "2025-12-26T14:00:04.000032",
        "meta_mean_motion": 15.75711986,
        "meta_eccentricity": 0.00038769,
        "meta_inclination": 69.9984,
        "meta_ra_of_asc_node": 210.6003,
        "meta_arg_of_pericenter": 267.7027,
        "meta_mean_anomaly": 51.369,
        "meta_ephemeris_type": 0,
        "meta_classification_type": "U",
        "meta_norad_cat_id": 67081,
        "meta_element_set_no": 999,
        "meta_rev_at_epoch": 320,
        "meta_bstar": -0.012603277,
        "meta_mean_motion_dot": -0.01714448,
        "meta_mean_motion_ddot": 0,
        "tle_line1": "1 67081U 25298G   25360.58337963 -.01714448  00000+0 -12603-1 0  9991",
        "tle_line2": "2 67081  69.9984 210.6003 0003876 267.7027  51.3690 15.75711986  3205"
      },
      "geometry": {
        "type": "Point",
        "coordinates": [
          -157.34434013281995,
          -19.459914833878106
        ]
      }
    }
  ]
}